NORAD_CAT_ID,OBJECT_NAME,OBJECT_TYPE,EPOCH,MEAN_MOTION,ECCENTRICITY,INCLINATION,RA_OF_ASC_NODE,ARG_OF_PERICENTER,MEAN_ANOMALY,BSTAR,MEAN_MOTION_DOT,MEAN_MOTION_DDOT,TLE_LINE0,TLE_LINE1,TLE_LINE2,SEMIMAJOR_AXIS,PERIOD,APOGEE,PERIGEE,DECAYED
54186.0,STARLINK-5194,PAYLOAD,2024-06-24 13:26:10,15.0884926,0.0001279,53.2179,271.6546,87.7451,272.3687,9.4664e-05,1.219e-05,0.0,0 STARLINK-5194,1 54186U 22141AF  24176.55984860  .00001219  00000-0  94664-4 0  9995,2 54186  53.2179 271.6546 0001279  87.7451 272.3687 15.08849260 91924,6917.852,95.437,540.602,538.832,0.0
54186.0,STARLINK-5194,PAYLOAD,2024-06-25 11:41:35,15.0883605,0.0001301,53.218,267.4958,92.2084,267.9057,9.9286e-06,-1.3e-06,0.0,0 STARLINK-5194,1 54186U 22141AF  24177.48722058 -.00000130  00000-0  99286-5 0  9995,2 54186  53.2180 267.4958 0001301  92.2084 267.9057 15.08836050 92290,6917.892,95.438,540.657,538.857,0.0
54186.0,STARLINK-5194,PAYLOAD,2024-06-26 11:32:22,15.08840938,0.000124,53.2163,263.0287,72.5151,287.5976,-1.3144e-05,-4.97e-06,0.0,0 STARLINK-5194,1 54186U 22141AF  24178.48082075 -.00000497  00000-0 -13144-4 0  9999,2 54186  53.2163 263.0287 0001240  72.5151 287.5976 15.08840938 92216,6917.878,95.437,540.6,538.885,0.0
54186.0,STARLINK-5194,PAYLOAD,2024-06-27 12:58:32,15.08845637,0.0001276,53.2163,258.275,81.0069,279.1068,0.00019531,2.822e-05,0.0,0 STARLINK-5194,1 54186U 22141AF  24179.54065491  .00002822  00000-0  19531-3 0  9997,2 54186  53.2163 258.2750 0001276  81.0069 279.1068 15.08845637 92602,6917.863,95.437,540.611,538.845,0.0
54186.0,STARLINK-5194,PAYLOAD,2024-06-28 11:13:56,15.08842366,0.0001215,53.2142,254.1131,87.8333,272.2799,0.00012436,1.692e-05,0.0,0 STARLINK-5194,1 54186U 22141AF  24180.46801902  .00001692  00000-0  12436-3 0  9996,2 54186  53.2142 254.1131 0001215  87.8333 272.2799 15.08842366 92744,6917.873,95.437,540.579,538.898,0.0
54186.0,STARLINK-5194,PAYLOAD,2024-06-28 12:49:19,15.08850993,0.0001301,53.2151,253.8156,92.4685,267.6456,0.00019615,2.836e-05,0.0,0 STARLINK-5194,1 54186U 22141AF  24180.53425463  .00002836  00000-0  19615-3 0  9995,2 54186  53.2151 253.8156 0001301  92.4685 267.6456 15.08850993 92524,6917.847,95.437,540.612,538.812,0.0
54186.0,STARLINK-5194,PAYLOAD,2024-06-28 22:21:38,15.08844493,0.0001598,53.2162,252.0289,114.0486,246.0674,0.00010718,1.418e-05,0.0,0 STARLINK-5194,1 54186U 22141AF  24180.93169611  .00001418  00000-0  10718-3 0  9999,2 54186  53.2162 252.0289 0001598 114.0486 246.0674 15.08844493 92589,6917.867,95.437,540.837,538.626,0.0
54186.0,STARLINK-5194,PAYLOAD,2024-06-29 04:43:11,15.08844768,0.0001848,53.2144,250.842,81.9776,278.1425,2.577e-05,1.22e-06,0.0,0 STARLINK-5194,1 54186U 22141AF  24181.19665840  .00000122  00000-0  25770-4 0  9999,2 54186  53.2144 250.8420 0001848  81.9776 278.1425 15.08844768 92859,6917.866,95.437,541.009,538.452,0.0
54186.0,STARLINK-5194,PAYLOAD,2024-06-29 14:15:30,15.08842164,0.0001469,53.2157,249.057,100.6363,259.4794,-9.0291e-06,-4.32e-06,0.0,0 STARLINK-5194,1 54186U 22141AF  24181.59409768 -.00000432  00000-0 -90291-5 0  9995,2 54186  53.2157 249.0570 0001469 100.6363 259.4794 15.08842164 92689,6917.874,95.437,540.755,538.723,0.0
54186.0,STARLINK-5194,PAYLOAD,2024-06-30 10:55:31,15.08837093,0.0001487,53.2164,245.19,103.796,256.3198,-6.8596e-05,-1.379e-05,0.0,0 STARLINK-5194,1 54186U 22141AF  24182.45522773 -.00001379  00000-0 -68596-4 0  9996,2 54186  53.2164 245.1900 0001487 103.7960 256.3198 15.08837093 93048,6917.889,95.438,540.783,538.726,0.0
54186.0,STARLINK-5194,PAYLOAD,2024-06-30 14:06:17,15.08837078,0.0001485,53.2164,244.5951,104.0929,256.0229,-6.5363e-05,-1.328e-05,0.0,0 STARLINK-5194,1 54186U 22141AF  24182.58770778 -.00001328  00000-0 -65363-4 0  9993,2 54186  53.2164 244.5951 0001485 104.0929 256.0229 15.08837078 92835,6917.889,95.438,540.782,538.727,0.0
54186.0,STARLINK-5194,PAYLOAD,2024-07-01 10:46:18,15.08843079,0.0001367,53.2155,240.7315,93.3673,266.7475,0.00017091,2.433e-05,0.0,0 STARLINK-5194,1 54186U 22141AF  24183.44882160  .00002433  00000-0  17091-3 0  9998,2 54186  53.2155 240.7315 0001367  93.3673 266.7475 15.08843079 93191,6917.871,95.437,540.682,538.79,0.0
54186.0,STARLINK-5194,PAYLOAD,2024-07-01 13:57:04,15.0884496,0.0001221,53.2157,240.1367,88.8944,271.2188,0.00015629,2.201e-05,0.0,0 STARLINK-5194,1 54186U 22141AF  24183.58130093  .00002201  00000-0  15629-3 0  9992,2 54186  53.2157 240.1367 0001221  88.8944 271.2188 15.08844960 92981,6917.865,95.437,540.575,538.886,0.0
54186.0,STARLINK-5194,PAYLOAD,2024-07-01 20:18:37,15.08840988,0.0001276,53.2145,238.9465,82.0688,278.0449,0.00012781,1.747e-05,0.0,0 STARLINK-5194,1 54186U 22141AF  24183.84626637  .00001747  00000-0  12781-3 0  9995,2 54186  53.2145 238.9465 0001276  82.0688 278.0449 15.08840988 93020,6917.877,95.437,540.625,538.86,0.0
54186.0,STARLINK-5194,PAYLOAD,2024-07-02 02:40:10,15.08837404,0.0001235,53.2148,237.7606,87.0701,273.0432,0.00016041,2.266e-05,0.0,0 STARLINK-5194,1 54186U 22141AF  24184.11122880  .00002266  00000-0  16041-3 0  9997,2 54186  53.2148 237.7606 0001235  87.0701 273.0432 15.08837404 93298,6917.888,95.438,540.608,538.899,0.0
54186.0,STARLINK-5194,PAYLOAD,2024-07-02 10:37:05,15.0883852,0.0001194,53.2153,236.2728,92.2726,267.8403,9.2346e-05,1.182e-05,0.0,0 STARLINK-5194,1 54186U 22141AF  24184.44242937  .00001182  00000-0  92346-4 0  9998,2 54186  53.2153 236.2728 0001194  92.2726 267.8403 15.08838520 93112,6917.885,95.438,540.576,538.924,0.0
54186.0,STARLINK-5194,PAYLOAD,2024-07-03 12:03:16,15.08839637,0.0001245,53.2157,231.5148,90.0387,270.0748,1.5731e-05,-3.7e-07,0.0,0 STARLINK-5194,1 54186U 22141AF  24185.50227179 -.00000037  00000-0  15731-4 0  9999,2 54186  53.2157 231.5148 0001245  90.0387 270.0748 15.08839637 93507,6917.881,95.438,540.608,538.885,0.0
54186.0,STARLINK-5194,PAYLOAD,2024-07-03 20:00:12,15.08837456,0.0001222,53.2158,230.0268,84.589,275.5242,-3.4806e-05,-8.42e-06,0.0,0 STARLINK-5194,1 54186U 22141AF  24185.83347411 -.00000842  00000-0 -34806-4 0  9996,2 54186  53.2158 230.0268 0001222  84.5890 275.5242 15.08837456 93323,6917.888,95.438,540.599,538.908,0.0
54186.0,STARLINK-5194,PAYLOAD,2024-07-04 02:21:44,15.08832673,0.0001299,53.2157,228.8372,85.9246,274.1895,3.5786e-05,2.82e-06,0.0,0 STARLINK-5194,1 54186U 22141AF  24186.09843673  .00000282  00000-0  35786-4 0  9990,2 54186  53.2157 228.8372 0001299  85.9246 274.1895 15.08832673 93591,6917.903,95.438,540.666,538.869,0.0
54186.0,STARLINK-5194,PAYLOAD,2024-07-04 11:54:03,15.0883917,0.000123,53.2155,227.053,84.262,275.8513,5.0701e-05,5.19e-06,0.0,0 STARLINK-5194,1 54186U 22141AF  24186.49587237  .00000519  00000-0  50701-4 0  9992,2 54186  53.2155 227.0530 0001230  84.2620 275.8513 15.08839170 93425,6917.883,95.438,540.599,538.897,0.0
54186.0,STARLINK-5194,PAYLOAD,2024-07-04 19:50:58,15.08841661,0.0001222,53.2158,225.5661,85.9975,274.1156,0.0001043,1.373e-05,0.0,0 STARLINK-5194,1 54186U 22141AF  24186.82706943  .00001373  00000-0  10430-3 0  9999,2 54186  53.2158 225.5661 0001222  85.9975 274.1156 15.08841661 93702,6917.875,95.437,540.586,538.895,0.0
54186.0,STARLINK-5194,PAYLOAD,2024-07-05 11:44:52,15.08812918,0.0001118,53.2161,222.5924,90.3674,269.7446,-0.00015592,-2.766e-05,0.0,0 STARLINK-5194,1 54186U 22141AF  24187.48950223 -.00002766  00000-0 -15592-3 0  9997,2 54186  53.2161 222.5924 0001118  90.3674 269.7446 15.08812918 93801,6917.963,95.439,540.602,539.055,0.0
54186.0,STARLINK-5194,PAYLOAD,2024-07-05 19:41:47,15.08828144,9.87e-05,53.2163,221.1056,85.27,274.8405,-1.7741e-05,-5.7e-06,0.0,0 STARLINK-5194,1 54186U 22141AF  24187.82069193 -.00000570  00000-0 -17741-4 0  9992,2 54186  53.2163 221.1056 0000987  85.2700 274.8405 15.08828144 93855,6917.917,95.438,540.464,539.099,0.0
54186.0,STARLINK-5194,PAYLOAD,2024-07-06 11:35:38,15.08845024,0.0001052,53.2154,218.132,77.6713,282.4397,0.0001164,1.565e-05,0.0,0 STARLINK-5194,1 54186U 22141AF  24188.48307955  .00001565  00000-0  11640-3 0  9990,2 54186  53.2154 218.1320 0001052  77.6713 282.4397 15.08845024 93950,6917.865,95.437,540.458,539.002,0.0
54186.0,STARLINK-5194,PAYLOAD,2024-07-06 19:32:33,15.08849682,0.0001075,53.2156,216.6461,75.2884,284.8227,0.0001386,1.919e-05,0.0,0 STARLINK-5194,1 54186U 22141AF  24188.81427594  .00001919  00000-0  13860-3 0  9998,2 54186  53.2156 216.6461 0001075  75.2884 284.8227 15.08849682 93771,6917.851,95.437,540.459,538.972,0.0
54186.0,STARLINK-5194,PAYLOAD,2024-07-07 08:15:38,15.08844729,0.0001133,53.2163,214.2666,82.4543,277.6578,0.00035872,5.426e-05,0.0,0 STARLINK-5194,1 54186U 22141AF  24189.34419671  .00005426  00000-0  35872-3 0  9998,2 54186  53.2163 214.2666 0001133  82.4543 277.6578 15.08844729 93852,6917.866,95.437,540.515,538.947,0.0
54186.0,STARLINK-5194,PAYLOAD,2024-07-08 08:06:25,15.08854834,0.0001068,53.2145,209.8053,76.4921,283.619,8.9752e-05,1.141e-05,0.0,0 STARLINK-5194,1 54186U 22141AF  24190.33779148  .00001141  00000-0  89752-4 0  9994,2 54186  53.2145 209.8053 0001068  76.4921 283.6190 15.08854834 94230,6917.835,95.437,540.439,538.961,0.0
54186.0,STARLINK-5194,PAYLOAD,2024-07-09 04:46:25,15.08848827,0.0001105,53.2157,205.9384,80.531,279.5807,-4.4391e-05,-9.94e-06,0.0,0 STARLINK-5194,1 54186U 22141AF  24191.19891112 -.00000994  00000-0 -44391-4 0  9992,2 54186  53.2157 205.9384 0001105  80.5310 279.5807 15.08848827 94365,6917.853,95.437,540.483,538.954,0.0
54186.0,STARLINK-5194,PAYLOAD,2024-07-09 07:57:12,15.08848967,0.0001076,53.2152,205.3441,77.1416,282.9696,-4.3772e-05,-9.85e-06,0.0,0 STARLINK-5194,1 54186U 22141AF  24191.33138964 -.00000985  00000-0 -43772-4 0  9999,2 54186  53.2152 205.3441 0001076  77.1416 282.9696 15.08848967 94150,6917.853,95.437,540.462,538.974,0.0
54186.0,STARLINK-5194,PAYLOAD,2024-07-10 04:37:13,15.08832495,0.000109,53.2157,201.4809,79.8451,280.2664,-6.5778e-05,-1.334e-05,0.0,0 STARLINK-5194,1 54186U 22141AF  24192.19252030 -.00001334  00000-0 -65778-4 0  9994,2 54186  53.2157 201.4809 0001090  79.8451 280.2664 15.08832495 94519,6917.903,95.438,540.522,539.014,0.0
